{
  "norad_id": 58062,
  "name": "STARLINK-30588",
  "history": [
    {
      "epoch": "2026-03-28T20:52:09.436224Z",
      "apogee_km": 484.0580848896998,
      "perigee_km": 481.99150295737036,
      "latitude_deg": -1.0938916902854052e-05,
      "longitude_deg": 139.36866362319438,
      "height_km": 482.84048698676065,
      "semi_major_axis_km": 6861.161793923535,
      "eccentricity": 0.0001506,
      "inclination_deg": 43.0004,
      "raan_deg": 278.6918,
      "arg_perigee_deg": 267.8444,
      "mean_anomaly_deg": 92.2235,
      "mean_motion_rev_day": 15.27588116
    },
    {
      "epoch": "2026-03-28T20:52:09.437088Z",
      "apogee_km": 484.05815350131707,
      "perigee_km": 481.99143434575217,
      "latitude_deg": -1.0153309944610614e-05,
      "longitude_deg": 139.3686608511294,
      "height_km": 482.84048956715594,
      "semi_major_axis_km": 6861.161793923535,
      "eccentricity": 0.00015061,
      "inclination_deg": 43.0004,
      "raan_deg": 278.6918,
      "arg_perigee_deg": 267.8444,
      "mean_anomaly_deg": 92.2235,
      "mean_motion_rev_day": 15.27588116
    },
    {
      "epoch": "2026-03-30T21:31:01.477632Z",
      "apogee_km": 483.8363898012076,
      "perigee_km": 482.2708033308827,
      "latitude_deg": -1.0910491655334133e-05,
      "longitude_deg": 116.20893223318346,
      "height_km": 482.77629517222084,
      "semi_major_axis_km": 6861.190596566044,
      "eccentricity": 0.00011409,
      "inclination_deg": 43.0002,
      "raan_deg": 267.2468,
      "arg_perigee_deg": 273.9419,
      "mean_anomaly_deg": 86.1302,
      "mean_motion_rev_day": 15.27578497
    },
    {
      "epoch": "2026-03-31T17:55:03.487296Z",
      "apogee_km": 484.13205805539474,
      "perigee_km": 481.85690685581176,
      "latitude_deg": 2.1008346338329814e-05,
      "longitude_deg": 164.56157268330574,
      "height_km": 482.7400110620545,
      "semi_major_axis_km": 6861.131482455603,
      "eccentricity": 0.0001658,
      "inclination_deg": 43.0011,
      "raan_deg": 262.4456,
      "arg_perigee_deg": 271.587,
      "mean_anomaly_deg": 88.4792,
      "mean_motion_rev_day": 15.27598239
    }
  ]
}